STARLINK-31089          
1 58610U 23200X   26068.31469296  .00000526  00000+0  29279-4 0  9994
2 58610  43.0021 170.8996 0001177 274.4243  85.6473 15.26736652123556
TEVEL2-8                
1 63239U 25052AF  26068.66815442  .00019130  00000+0  69304-3 0  9993
2 63239  97.4055 324.2923 0008031 124.9191 235.2804 15.28392908 54807
